IRIDIUM 142             
1 43256U 18030H   20312.82268472  .00000101  00000-0  29002-4 0  9998
2 43256  86.3981  66.0140 0002169  94.1357 266.0086 14.34216330136680
IRIDIUM 150             
1 43257U 18030J   20312.79095058  .00000104  00000-0  30200-4 0  9998
2 43257  86.3983  66.0775 0002177  99.9130 260.2312 14.34217850136729
IRIDIUM 143             
1 43258U 18030K   20312.70215598  .00000092  00000-0  25880-4 0  9997
2 43258  86.3987  66.1227 0002741  97.1055 263.0452 14.34221178136623
IRIDIUM 161             
1 43478U 18047C   20312.82930561  .00000101  00000-0  24107-4 0  9998
2 43478  86.4543 224.0437 0001797  90.6937 269.4470 14.43276729129838
